1 35618U 97051QQ  26114.22865173  .00001209  00000+0  28755-3 0  9994
2 35618  86.3344 295.5416 0026280 294.7776  65.0696 14.52870281673179
